OBJECT_NAME,OBJECT_ID,EPOCH,MEAN_MOTION,ECCENTRICITY,INCLINATION,RA_OF_ASC_NODE,ARG_OF_PERICENTER,MEAN_ANOMALY,EPHEMERIS_TYPE,CLASSIFICATION_TYPE,NORAD_CAT_ID,ELEMENT_SET_NO,REV_AT_EPOCH,BSTAR,MEAN_MOTION_DOT,MEAN_MOTION_DDOT
IRIDIUM 138,2017-083B,2026-07-13T09:50:15.154368,14.34218244,.0002067,86.3998,310.7531,92.1611,267.9821,0,U,43071,999,44789,.42079E-4,.138E-5,0
IRIDIUM 116,2017-083C,2026-07-13T09:04:35.059584,14.34217437,.0002439,86.3985,311.0527,99.2861,260.8611,0,U,43072,999,44792,.40653E-4,.134E-5,0
IRIDIUM 130,2017-083D,2026-07-13T09:59:23.409024,14.34217508,.0002228,86.3992,311.3147,100.8989,259.2457,0,U,43073,999,44787,.39579E-4,.131E-5,0
IRIDIUM 151,2017-083E,2026-07-13T09:22:51.244032,14.34217809,.0002243,86.3986,311.1056,95.3361,264.8090,0,U,43074,999,44789,.4338E-4,.141E-5,0
IRIDIUM 134,2017-083F,2026-07-13T08:37:11.178624,14.34218218,.0002211,86.3986,311.1273,95.7016,264.4432,0,U,43075,999,44785,.34762E-4,.117E-5,0
IRIDIUM 137,2017-083G,2026-07-13T08:55:27.306912,14.34218201,.0002671,86.3989,311.2154,93.8582,266.2919,0,U,43076,999,44792,.38625E-4,.128E-5,0
IRIDIUM 141,2017-083H,2026-07-13T08:46:19.128288,14.34217717,.0002169,86.3983,311.0471,93.5783,266.5661,0,U,43077,999,44792,.34446E-4,.116E-5,0
IRIDIUM 153,2017-083J,2026-07-13T07:37:27.410304,14.34217742,.0002115,86.3960,279.5468,94.4077,265.7360,0,U,43078,999,44902,.15988E-4,.65E-6,0
IRIDIUM 131,2017-083K,2026-07-13T10:08:31.257600,14.34217834,.0002244,86.3991,311.2108,93.0177,267.1276,0,U,43079,999,44786,.14882E-4,.61E-6,0
IRIDIUM 144,2018-030A,2026-07-13T07:46:35.442912,14.34217778,.0002382,86.3957,279.4726,97.8417,262.3049,0,U,43249,999,43388,.12863E-4,.56E-6,0
IRIDIUM 149,2018-030B,2026-07-13T07:55:43.459104,14.34217911,.0002259,86.3957,279.4366,93.4262,266.7192,0,U,43250,999,43390,.32632E-4,.111E-5,0
IRIDIUM 157,2018-030C,2026-07-13T05:02:11.663808,14.34217569,.0002259,86.3961,279.5410,94.2415,265.9039,0,U,43251,999,43386,.41892726E-4,.137E-5,0
IRIDIUM 140,2018-030D,2026-07-12T17:46:19.609536,14.34217052,.00022316,86.3960,279.7497,95.7423,264.4028,0,U,43252,999,43385,.46127484E-4,.149E-5,0
IRIDIUM 145,2018-030E,2026-07-12T17:28:03.302400,14.34217167,.00024729,86.3959,279.7269,100.6657,259.4817,0,U,43253,999,43378,.41832735E-4,.137E-5,0
IRIDIUM 146,2018-030F,2026-07-13T08:04:51.400992,14.34217449,.0002359,86.3960,279.4848,96.8840,263.2624,0,U,43254,999,43388,.15927E-4,.64E-6,0
IRIDIUM 148,2018-030G,2026-07-13T07:19:11.711424,14.34217625,.0002349,86.3961,279.5414,94.0252,266.1213,0,U,43255,999,43391,.46108E-4,.149E-5,0
IRIDIUM 142,2018-030H,2026-07-13T04:53:03.467040,14.34218017,.0002405,86.3955,279.4720,97.6467,262.5002,0,U,43256,999,43386,.32706E-4,.111E-5,0
IRIDIUM 150,2018-030J,2026-07-13T07:28:19.149600,14.34216194,.0002118,86.3959,279.5438,96.3708,263.7729,0,U,43257,999,43390,-.79982E-4,-.204E-5,0
IRIDIUM 143,2018-030K,2026-07-12T17:37:11.482752,14.34217359,.00023148,86.3963,279.8786,96.3911,263.7548,0,U,43258,999,43375,.18596427E-4,.72E-6,0
IRIDIUM 161,2018-047C,2026-07-11T03:46:43.203072,14.43284936,.00023067,86.4467,78.4474,78.8180,281.3280,0,U,43478,999,42859,.45078032E-4,.172E-5,0
IRIDIUM 152,2018-047D,2026-07-13T04:41:10.496832,14.34219718,.0002133,86.3938,77.4561,83.5824,276.5614,0,U,43479,999,42621,.46182E-4,.149E-5,0
IRIDIUM 147,2018-047E,2026-07-13T04:50:18.163968,14.34217516,.0002266,86.3940,77.4591,88.2952,271.8503,0,U,43480,999,42621,.45839E-4,.148E-5,0
IRIDIUM 110,2018-047F,2026-07-12T23:58:02.313696,14.34217966,.00021563,86.3943,77.6367,76.5156,283.6280,0,U,43481,999,42617,.45155031E-4,.146E-5,0
IRIDIUM 162,2018-047G,2026-07-10T02:40:06.655296,14.43283456,.00021871,86.4467,78.7759,84.2783,275.8667,0,U,43482,999,42843,.50126108E-4,.189E-5,0
IRIDIUM 160,2018-061A,2026-07-13T12:03:46.350720,14.34216585,.0002224,86.3940,45.7900,86.0357,274.1093,0,U,43569,999,41714,.35601E-4,.119E-5,0
IRIDIUM 166,2018-061B,2026-07-13T12:40:18.520896,14.34217384,.000226,86.3941,45.7294,90.1763,269.9692,0,U,43570,999,41717,.50236E-5,.34E-6,0
IRIDIUM 158,2018-061C,2026-07-13T00:11:22.485696,14.34217395,.00020617,86.3940,45.9570,86.4900,273.6532,0,U,43571,999,41706,.1389145E-4,.59E-6,0
IRIDIUM 165,2018-061D,2026-07-12T13:04:38.438976,14.34217303,.00022661,86.3942,46.1976,90.8182,269.3273,0,U,43572,999,41702,.25565263E-4,.91E-6,0
IRIDIUM 155,2018-061E,2026-07-12T23:53:06.448992,14.34217272,.00021015,86.3939,45.8772,89.0391,271.1045,0,U,43573,999,41705,.2137746E-4,.8E-6,0
IRIDIUM 154,2018-061F,2026-07-13T12:49:26.403168,14.34217778,.0002291,86.3939,45.7864,90.0623,270.0835,0,U,43574,999,41718,.37313E-4,.124E-5,0
